GLOBALSTAR M068 [-]     
1 32266U 07048D   23362.67864137 -.00000085  00000+0  10688-3 0  9995
2 32266  51.9870 137.6435 0001548  79.3233  25.9850 12.62775539749775
GLOBALSTAR M079 [+]     
1 37188U 10054A   23362.86692867 -.00000090  00000+0  76453-4 0  9993
2 37188  52.0059 332.4314 0000220  83.1670 353.1097 12.62270901608720
GLOBALSTAR M074 [+]     
1 37189U 10054B   23363.13192830 -.00000097  00000+0  40559-4 0  9995
2 37189  52.0036 331.0300 0000433  49.8445  31.1922 12.62263508609435
GLOBALSTAR M076 [+]     
1 37190U 10054C   23363.33168424 -.00000089  00000+0  80132-4 0  9993
2 37190  52.0050 330.5474 0000337 313.5538 194.0195 12.62257125609468
GLOBALSTAR M077 [+]     
1 37191U 10054D   23362.83200992 -.00000067  00000+0  20592-3 0  9994
2 37191  52.0082 288.7704 0000728  48.3505  47.3897 12.62267841609415
GLOBALSTAR M075 [+]     
1 37192U 10054E   23363.25111302 -.00000084  00000+0  11139-3 0  9994
2 37192  51.9971  13.3478 0000401 132.9315 307.8976 12.62268685608696
GLOBALSTAR M073 [+]     
1 37193U 10054F   23363.18601623 -.00000074  00000+0  16428-3 0  9992
2 37193  52.0070 286.9536 0000700  52.5734  94.3638 12.62270687610192
GLOBALSTAR M083 [+]     
1 37739U 11033A   23363.12479005 -.00000076  00000+0  15417-3 0  9996
2 37739  51.9849 236.6038 0001147  80.2304  88.6194 12.62264392579515
GLOBALSTAR M088 [+]     
1 37740U 11033B   23363.38200397 -.00000119  00000+0 -82731-4 0  9995
2 37740  51.9718 141.7600 0001177 114.6652 263.9695 12.62269070575028
GLOBALSTAR M091 [+]     
1 37741U 11033C   23362.62244715 -.00000106  00000+0 -15116-4 0  9993
2 37741  52.0001 106.6710 0001016 117.0108 347.5126 12.62269870575681
GLOBALSTAR M085 [+]     
1 37742U 11033D   23363.48044389 -.00000080  00000+0  13090-3 0  9992
2 37742  51.9883  55.5723 0000716 132.0254 333.2622 12.62266177576534
GLOBALSTAR M081 [+]     
1 37743U 11033E   23362.47676819 -.00000079  00000+0  13618-3 0  9994
2 37743  51.9973  61.0840 0000750 147.0117 315.3928 12.62267820576063
GLOBALSTAR M089 [+]     
1 37744U 11033F   23363.22391657 -.00000078  00000+0  14275-3 0  9992
2 37744  51.9954  13.1378 0000021  92.9042 346.7962 12.62270687577256
GLOBALSTAR M084 [+]     
1 38040U 11080A   23362.84107411 -.00000068  00000+0  19785-3 0  9994
2 38040  51.9995 241.3094 0000815  56.1827  21.6506 12.62269765554933
GLOBALSTAR M080 [+]     
1 38041U 11080B   23363.15092976 -.00000065  00000+0  21513-3 0  9998
2 38041  52.0048 241.7852 0000673  50.4667 115.8367 12.62267873555235
GLOBALSTAR M082 [+]     
1 38042U 11080C   23363.00527589 -.00000093  00000+0  59115-4 0  9997
2 38042  52.0047 197.6156 0001735  90.0268  75.1672 12.62264986555956
GLOBALSTAR M092 [+]     
1 38043U 11080D   23362.95991531 -.00000075  00000+0  15835-3 0  9993
2 38043  52.0094 288.1040 0000770  32.4369  45.1200 12.62240081554231
GLOBALSTAR M090 [+]     
1 38044U 11080E   23362.94841612 -.00000098  00000+0  33991-4 0  9996
2 38044  51.9858 192.2871 0001377  90.4704  56.9207 12.62265254555895
GLOBALSTAR M086 [+]     
1 38045U 11080F   23363.50069675 -.00000102  00000+0  73445-5 0  9996
2 38045  51.9870 191.1159 0000971 140.2929 237.0771 12.62266151556019
GLOBALSTAR M097 [+]     
1 39072U 13005A   23362.57289024 -.00000114  00000+0 -54511-4 0  9990
2 39072  52.0044 107.9399 0001090 122.3961 237.7012 12.62273547503043
GLOBALSTAR M093 [+]     
1 39073U 13005B   23363.10056889 -.00000096  00000+0  42113-4 0  9995
2 39073  51.9812 100.4936 0001189 135.3890 224.7072 12.62278544503183
GLOBALSTAR M094 [+]     
1 39074U 13005C   23363.33838743 -.00000092  00000+0  63086-4 0  9996
2 39074  51.9979  13.6183 0000350 136.2591 223.8303 12.62270689504724
GLOBALSTAR M096 [+]     
1 39075U 13005D   23363.35175770 -.00000077  00000+0  14681-3 0  9992
2 39075  52.0087  61.6745 0000814 138.8171 221.2757 12.62267340503972
GLOBALSTAR M078 [+]     
1 39076U 13005E   23363.40443336 -.00000121  00000+0 -95166-4 0  9994
2 39076  51.9848 146.7513 0001799  88.1864 271.9208 12.62258579502463
GLOBALSTAR M095 [+]     
1 39077U 13005F   23362.71802898 -.00000119  00000+0 -87212-4 0  9990
2 39077  51.9780 146.3031 0001711 106.2893 253.8161 12.62272253502381
GLOBALSTAR M087 [+]     
1 52888U 22064A   23363.44102123 -.00000084  00000+0  84005-4 0  9992
2 52888  51.9764  83.7585 0008817 291.6685  68.3276 13.37561219 74676
